{
  "norad_id": 56778,
  "name": "STARLINK-6304",
  "history": [
    {
      "epoch": "2026-03-28T21:02:11.663232",
      "apogee_km": 574.0228074592897,
      "perigee_km": 570.1237394958698,
      "latitude_deg": 34.43137343796704,
      "longitude_deg": -58.05370751977898,
      "semi_major_axis_km": 6950.21027347758,
      "eccentricity": 0.0002805,
      "inclination_deg": 69.9982,
      "raan_deg": 276.2331,
      "arg_perigee_deg": 270.2467,
      "mean_anomaly_deg": 89.8371,
      "mean_motion_rev_day": 14.98324379
    }
  ]
}